OBJECT_NAME,OBJECT_ID,EPOCH,MEAN_MOTION,ECCENTRICITY,INCLINATION,RA_OF_ASC_NODE,ARG_OF_PERICENTER,MEAN_ANOMALY,EPHEMERIS_TYPE,CLASSIFICATION_TYPE,NORAD_CAT_ID,ELEMENT_SET_NO,REV_AT_EPOCH,BSTAR,MEAN_MOTION_DOT,MEAN_MOTION_DDOT
STARLINK-37938,2026-135Y,2026-07-13T12:00:00.998784,15.49152091,.0001426,97.2836,222.8944,98.2576,47.5512,0,U,69568,999,553,.1717E-2,.94295E-3,0
STARLINK-37924,2026-135Z,2026-07-13T12:00:00.998784,15.52981160,.0001525,97.2843,222.9925,73.0229,291.0849,0,U,69569,999,554,-.54199E-1,-.2930147E-1,0
SHIJIAN-31 (SJ-31),2026-136A,2026-07-13T12:08:23.248896,1.92227787,.6940088,63.4867,353.3689,171.8375,212.2965,0,U,69570,999,59,0,-.478E-5,0
GUOWANG OBJECT A,2026-137A,2026-07-12T21:25:09.001056,13.89812741,.0012495,49.9997,153.0717,311.3863,48.5960,0,U,69572,999,359,.2450247E-5,-.143E-5,0
GUOWANG OBJECT B,2026-137B,2026-07-09T15:41:33.480672,13.89803849,.00118595,50.0016,165.9303,298.8434,61.1273,0,U,69573,999,315,-.55136387E-4,-.214E-5,0
GUOWANG OBJECT C,2026-137C,2026-07-12T21:19:24.187296,13.89814739,.0011896,49.9967,153.0345,311.4365,48.5511,0,U,69574,999,360,-.2748E-4,-.18E-5,0
GUOWANG OBJECT D,2026-137D,2026-07-09T15:38:20.572800,13.89827781,.00110869,49.9953,165.9027,299.2996,60.6794,0,U,69575,999,315,-.17667174E-4,-.168E-5,0
GUOWANG OBJECT E,2026-137E,2026-07-12T00:33:49.286304,13.89824941,.00112248,50.0038,156.4799,310.0552,49.9361,0,U,69576,999,348,-.46562868E-4,-.204E-5,0
GUOWANG OBJECT F,2026-137F,2026-07-11T07:17:14.089920,13.89809360,.0010834,50.0028,159.3340,307.7048,52.2867,0,U,69577,999,338,-.46815E-4,-.204E-5,0
GUOWANG OBJECT G,2026-137G,2026-07-11T07:16:00.337152,13.89795025,.0010806,49.9952,159.3085,307.5258,52.4657,0,U,69578,999,338,.35461E-5,-.142E-5,0
GUOWANG OBJECT H,2026-137H,2026-07-10T00:11:03.674688,13.89776278,.00102494,50.0012,164.4679,306.3680,53.6272,0,U,69579,999,320,-.23862216E-4,-.175E-5,0
GUOWANG OBJECT J,2026-137J,2026-06-27T06:41:01.268160,13.91997107,.0011832,49.9961,215.0979,257.3150,102.6427,0,U,69580,999,143,.13174E-3,.22E-6,0
CENTISPACE-1 GROUP 05 OBJECT A,2026-138A,2026-07-13T08:11:08.212992,14.15470945,.0011308,55.1388,184.5993,340.3719,19.6818,0,U,69582,999,372,.51929E-4,-.52E-6,0
CENTISPACE-1 GROUP 05 OBJECT B,2026-138B,2026-07-13T11:29:39.474240,14.15650578,.0010296,55.1382,184.0587,341.1535,18.9057,0,U,69583,999,374,.42988E-5,-.145E-5,0
CENTISPACE-1 GROUP 05 OBJECT C,2026-138C,2026-07-13T11:27:23.172192,14.15734094,.0010228,55.1387,184.0591,342.7982,17.2644,0,U,69584,999,374,-.21642E-4,-.196E-5,0
CENTISPACE-1 GROUP 05 OBJECT D,2026-138D,2026-07-13T11:22:41.050272,14.15919525,.0009819,55.1385,184.0335,342.0163,18.0463,0,U,69585,999,374,-.74602E-4,-.301E-5,0
CENTISPACE-1 GROUP 05 OBJECT E,2026-138E,2026-07-12T23:29:19.337856,14.15986721,.00095001,55.1377,185.8600,341.3569,18.7056,0,U,69586,999,367,-.81159363E-4,-.314E-5,0
CENTISPACE-1 GROUP 05 OBJECT F,2026-138F,2026-07-12T23:31:05.217600,14.15909909,.00094364,55.1382,185.8680,345.5018,14.5684,0,U,69587,999,367,-.69904551E-4,-.292E-5,0
CENTISPACE-1 GROUP 05 OBJECT G,2026-138G,2026-07-12T09:53:32.912736,14.16073930,.00086294,55.1383,187.9363,344.0005,16.0696,0,U,69588,999,359,-.11166998E-3,-.375E-5,0
SPACEMOBILE-008,2026-139A,2026-07-13T05:41:11.027616,15.12800584,.000499,52.9945,144.2981,51.8250,308.3190,0,U,69589,999,392,.10367E-4,-.117E-5,0
SPACEMOBILE-009,2026-139B,2026-07-13T12:04:22.503936,15.12694011,.0005247,52.9937,143.1044,48.2682,311.8756,0,U,69590,999,396,.10568E-4,-.114E-5,0
SPACEMOBILE-010,2026-139C,2026-07-13T05:47:58.811424,15.12525408,.0005157,52.9943,144.3248,39.4417,320.6949,0,U,69591,999,393,.15486E-4,-.28E-6,0
KUIPER-00423,2026-140A,2026-07-13T10:17:28.578336,15.38591813,.0013595,51.8805,271.6051,261.6065,98.3381,0,U,69592,999,527,.42114E-3,.15983E-3,0
KUIPER-00428,2026-140B,2026-07-13T11:10:20.764704,15.36925172,.0008025,51.8806,271.8447,25.0788,335.0587,0,U,69593,999,527,.2124E-3,.7411E-4,0
KUIPER-00481,2026-140C,2026-07-13T10:32:39.476256,15.37999156,.0010336,51.8770,271.6726,265.7594,94.2212,0,U,69594,999,527,.48337E-3,.1803E-3,0
KUIPER-00490,2026-140D,2026-07-13T10:46:37.731648,15.37930192,.0006787,51.8780,271.7297,334.9019,25.1638,0,U,69595,999,527,.21161E-3,.7634E-4,0
KUIPER-00493,2026-140E,2026-07-13T11:17:30.825024,15.36649783,.0007425,51.8817,271.8746,33.8337,326.3121,0,U,69596,999,527,.38735E-3,.13724E-3,0
KUIPER-00496,2026-140F,2026-07-13T11:48:31.926816,15.34282725,.0010117,51.8780,272.0056,44.5528,315.6269,0,U,69597,999,527,.50222E-3,.16602E-3,0
